CS1                     
1 49261U 21088B   26068.75173904  .00015722  00000+0  51176-3 0  9998
2 49261  97.3882 132.1684 0014129  78.0335 282.2490 15.31848439245182
STARLINK-35951          
1 66619U 25271C   26068.49025220  .00018085  00000+0  62166-3 0  9996
2 66619  53.1573 141.0365 0001168 103.5033 256.6098 15.30177372 17533
