[{"OBJECT_NAME":"CS1","OBJECT_ID":"2021-088B","EPOCH":"2026-03-09T18:02:30.253920","MEAN_MOTION":15.31848439,"ECCENTRICITY":0.00141292,"INCLINATION":97.3882,"RA_OF_ASC_NODE":132.1684,"ARG_OF_PERICENTER":78.0335,"MEAN_ANOMALY":282.249,"EPHEMERIS_TYPE":0,"CLASSIFICATION_TYPE":"U","NORAD_CAT_ID":49261,"ELEMENT_SET_NO":999,"REV_AT_EPOCH":24518,"BSTAR":0.00051175576,"MEAN_MOTION_DOT":0.00015722,"MEAN_MOTION_DDOT":0},{"OBJECT_NAME":"STARLINK-35951","OBJECT_ID":"2025-271C","EPOCH":"2026-03-09T11:45:57.790080","MEAN_MOTION":15.30177372,"ECCENTRICITY":0.00011682,"INCLINATION":53.1573,"RA_OF_ASC_NODE":141.0365,"ARG_OF_PERICENTER":103.5033,"MEAN_ANOMALY":256.6098,"EPHEMERIS_TYPE":0,"CLASSIFICATION_TYPE":"U","NORAD_CAT_ID":66619,"ELEMENT_SET_NO":999,"REV_AT_EPOCH":1753,"BSTAR":0.00062166057,"MEAN_MOTION_DOT":0.00018085,"MEAN_MOTION_DDOT":0}]
